[{"OBJECT_NAME":"IRIDIUM 181","OBJECT_ID":"2023-068S","EPOCH":"2026-03-09T14:51:01.796256","MEAN_MOTION":14.43307145,"ECCENTRICITY":0.0002603,"INCLINATION":86.4454,"RA_OF_ASC_NODE":98.4288,"ARG_OF_PERICENTER":96.8881,"MEAN_ANOMALY":263.2616,"EPHEMERIS_TYPE":0,"CLASSIFICATION_TYPE":"U","NORAD_CAT_ID":56726,"ELEMENT_SET_NO":999,"REV_AT_EPOCH":14807,"BSTAR":1.6704e-5,"MEAN_MOTION_DOT":7.6e-7,"MEAN_MOTION_DDOT":0},{"OBJECT_NAME":"COSMOS 2251 DEB","OBJECT_ID":"1993-036FV","EPOCH":"2026-03-09T15:27:25.227936","MEAN_MOTION":14.43704862,"ECCENTRICITY":0.0041392,"INCLINATION":74.0361,"RA_OF_ASC_NODE":141.1924,"ARG_OF_PERICENTER":198.5221,"MEAN_ANOMALY":283.7287,"EPHEMERIS_TYPE":0,"CLASSIFICATION_TYPE":"U","NORAD_CAT_ID":33986,"ELEMENT_SET_NO":999,"REV_AT_EPOCH":89282,"BSTAR":0.00067925,"MEAN_MOTION_DOT":2.305e-5,"MEAN_MOTION_DDOT":0}]
